{
  "type": "FeatureCollection",
  "features": [
    {
      "type": "Feature",
      "properties": {
        "norad_id": 67229,
        "name": "ELECTRON KICK STAGE R/B",
        "group": "last-30-days",
        "lat": 39.89772774509096,
        "lon": -177.118695141307,
        "alt_km": 573.3836208914436,
        "timestamp": "2025-12-22T18:58:52.142989+00:00",
        "meta_object_name": "ELECTRON KICK STAGE R/B",
        "meta_object_id": "2025-307B",
        "meta_epoch": "2025-12-21T08:41:51.108576",
        "meta_mean_motion": 15.52867797,
        "meta_eccentricity": 0.02558333,
        "meta_inclination": 41.9984,
        "meta_ra_of_asc_node": 123.0965,
        "meta_arg_of_pericenter": 237.1795,
        "meta_mean_anomaly": 120.4177,
        "meta_ephemeris_type": 0,
        "meta_classification_type": "U",
        "meta_norad_cat_id": 67229,
        "meta_element_set_no": 999,
        "meta_rev_at_epoch": 1,
        "meta_bstar": 0.00022820983,
        "meta_mean_motion_dot": 0.00064668,
        "meta_mean_motion_ddot": 7.864022e-06,
        "tle_line1": "1 67229U 25307B   25355.36239709  .00064668  78640-5  22821-3 0  9990",
        "tle_line2": "2 67229  41.9984 123.0965 0255833 237.1795 120.4177 15.52867797    19"
      },
      "geometry": {
        "type": "Point",
        "coordinates": [
          -177.118695141307,
          39.89772774509096
        ]
      }
    },
    {
      "type": "Feature",
      "properties": {
        "norad_id": 67230,
        "name": "ELECTRON R/B",
        "group": "last-30-days",
        "lat": 41.76990166676955,
        "lon": -162.10239363426325,
        "alt_km": 566.2853785722491,
        "timestamp": "2025-12-22T18:58:52.142999+00:00",
        "meta_object_name": "ELECTRON R/B",
        "meta_object_id": "2025-307C",
        "meta_epoch": "2025-12-21T08:41:59.140320",
        "meta_mean_motion": 15.55087105,
        "meta_eccentricity": 0.02614087,
        "meta_inclination": 41.982,
        "meta_ra_of_asc_node": 123.1026,
        "meta_arg_of_pericenter": 268.141,
        "meta_mean_anomaly": 88.9482,
        "meta_ephemeris_type": 0,
        "meta_classification_type": "U",
        "meta_norad_cat_id": 67230,
        "meta_element_set_no": 999,
        "meta_rev_at_epoch": 1,
        "meta_bstar": 0.00020247584,
        "meta_mean_motion_dot": 0.00071881,
        "meta_mean_motion_ddot": 8.106877e-06,
        "tle_line1": "1 67230U 25307C   25355.36249005  .00071881  81069-5  20248-3 0  9997",
        "tle_line2": "2 67230  41.9820 123.1026 0261408 268.1410  88.9482 15.55087105    19"
      },
      "geometry": {
        "type": "Point",
        "coordinates": [
          -162.10239363426325,
          41.76990166676955
        ]
      }
    }
  ]
}